[{"OBJECT_NAME":"ONEWEB-0034","OBJECT_ID":"2020-020AG","EPOCH":"2025-10-13T07:19:51.735360","MEAN_MOTION":13.1141778,"ECCENTRICITY":0.00015707,"INCLINATION":87.8827,"RA_OF_ASC_NODE":70.221,"ARG_OF_PERICENTER":94.9262,"MEAN_ANOMALY":265.2045,"EPHEMERIS_TYPE":0,"CLASSIFICATION_TYPE":"U","NORAD_CAT_ID":45454,"ELEMENT_SET_NO":999,"REV_AT_EPOCH":27023,"BSTAR":0.0010105126,"MEAN_MOTION_DOT":3.71e-6,"MEAN_MOTION_DDOT":0},{"OBJECT_NAME":"ONEWEB-0060","OBJECT_ID":"2020-020AH","EPOCH":"2025-10-12T15:59:23.954208","MEAN_MOTION":13.1141766,"ECCENTRICITY":6.582e-5,"INCLINATION":87.881,"RA_OF_ASC_NODE":70.3722,"ARG_OF_PERICENTER":141.3595,"MEAN_ANOMALY":218.758,"EPHEMERIS_TYPE":0,"CLASSIFICATION_TYPE":"U","NORAD_CAT_ID":45455,"ELEMENT_SET_NO":999,"REV_AT_EPOCH":27010,"BSTAR":-0.0015104873,"MEAN_MOTION_DOT":-5.23e-6,"MEAN_MOTION_DDOT":0},{"OBJECT_NAME":"ONEWEB-0086","OBJECT_ID":"2020-020AJ","EPOCH":"2025-10-13T07:57:42.158880","MEAN_MOTION":13.11414686,"ECCENTRICITY":0.00015271,"INCLINATION":87.882,"RA_OF_ASC_NODE":70.2125,"ARG_OF_PERICENTER":124.152,"MEAN_ANOMALY":235.9753,"EPHEMERIS_TYPE":0,"CLASSIFICATION_TYPE":"U","NORAD_CAT_ID":45456,"ELEMENT_SET_NO":999,"REV_AT_EPOCH":27025,"BSTAR":0.0005240586,"MEAN_MOTION_DOT":1.98e-6,"MEAN_MOTION_DDOT":0},{"OBJECT_NAME":"ONEWEB-0088","OBJECT_ID":"2020-020AK","EPOCH":"2025-10-13T03:46:14.901024","MEAN_MOTION":13.11414963,"ECCENTRICITY":0.00016815,"INCLINATION":87.8827,"RA_OF_ASC_NODE":70.1963,"ARG_OF_PERICENTER":91.5324,"MEAN_ANOMALY":268.5997,"EPHEMERIS_TYPE":0,"CLASSIFICATION_TYPE":"U","NORAD_CAT_ID":45457,"ELEMENT_SET_NO":999,"REV_AT_EPOCH":27016,"BSTAR":0.0010047163,"MEAN_MOTION_DOT":3.69e-6,"MEAN_MOTION_DDOT":0},{"OBJECT_NAME":"ONEWEB-0102","OBJECT_ID":"2020-100A","EPOCH":"2025-10-13T06:41:31.435584","MEAN_MOTION":13.12443453,"ECCENTRICITY":0.00018894,"INCLINATION":87.8958,"RA_OF_ASC_NODE":39.7341,"ARG_OF_PERICENTER":101.6662,"MEAN_ANOMALY":258.4679,"EPHEMERIS_TYPE":0,"CLASSIFICATION_TYPE":"U","NORAD_CAT_ID":47258,"ELEMENT_SET_NO":999,"REV_AT_EPOCH":23234,"BSTAR":-0.00058410954,"MEAN_MOTION_DOT":-1.97e-6,"MEAN_MOTION_DDOT":0},{"OBJECT_NAME":"ONEWEB-0109","OBJECT_ID":"2020-100B","EPOCH":"2025-10-13T01:23:52.053504","MEAN_MOTION":13.12444415,"ECCENTRICITY":0.00018068,"INCLINATION":87.8956,"RA_OF_ASC_NODE":39.7459,"ARG_OF_PERICENTER":103.2227,"MEAN_ANOMALY":256.9104,"EPHEMERIS_TYPE":0,"CLASSIFICATION_TYPE":"U","NORAD_CAT_ID":47259,"ELEMENT_SET_NO":999,"REV_AT_EPOCH":23214,"BSTAR":2.4368932e-5,"MEAN_MOTION_DOT":2.1e-7,"MEAN_MOTION_DDOT":0},{"OBJECT_NAME":"ONEWEB-0110","OBJECT_ID":"2020-100C","EPOCH":"2025-10-13T07:30:34.912512","MEAN_MOTION":13.12443684,"ECCENTRICITY":0.00015794,"INCLINATION":87.8953,"RA_OF_ASC_NODE":39.6792,"ARG_OF_PERICENTER":109.2594,"MEAN_ANOMALY":250.8705,"EPHEMERIS_TYPE":0,"CLASSIFICATION_TYPE":"U","NORAD_CAT_ID":47260,"ELEMENT_SET_NO":999,"REV_AT_EPOCH":23234,"BSTAR":0.001239401,"MEAN_MOTION_DOT":4.59e-6,"MEAN_MOTION_DDOT":0},{"OBJECT_NAME":"ONEWEB-0111","OBJECT_ID":"2020-100D","EPOCH":"2025-10-13T08:14:57.737184","MEAN_MOTION":13.12442785,"ECCENTRICITY":0.00017154,"INCLINATION":87.8957,"RA_OF_ASC_NODE":39.6903,"ARG_OF_PERICENTER":100.7497,"MEAN_ANOMALY":259.3825,"EPHEMERIS_TYPE":0,"CLASSIFICATION_TYPE":"U","NORAD_CAT_ID":47261,"ELEMENT_SET_NO":999,"REV_AT_EPOCH":23218,"BSTAR":-0.0010757903,"MEAN_MOTION_DOT":-3.74e-6,"MEAN_MOTION_DDOT":0},{"OBJECT_NAME":"ONEWEB-0114","OBJECT_ID":"2020-100E","EPOCH":"2025-10-13T07:09:33.830208","MEAN_MOTION":13.12444715,"ECCENTRICITY":0.00020257,"INCLINATION":87.8956,"RA_OF_ASC_NODE":39.6936,"ARG_OF_PERICENTER":99.1509,"MEAN_ANOMALY":260.9849,"EPHEMERIS_TYPE":0,"CLASSIFICATION_TYPE":"U","NORAD_CAT_ID":47262,"ELEMENT_SET_NO":999,"REV_AT_EPOCH":23213,"BSTAR":0.0010246672,"MEAN_MOTION_DOT":3.81e-6,"MEAN_MOTION_DDOT":0},{"OBJECT_NAME":"ONEWEB-0117","OBJECT_ID":"2020-100F","EPOCH":"2025-10-13T06:57:52.881696","MEAN_MOTION":13.12444964,"ECCENTRICITY":0.00017245,"INCLINATION":87.8957,"RA_OF_ASC_NODE":39.6933,"ARG_OF_PERICENTER":101.2085,"MEAN_ANOMALY":258.9238,"EPHEMERIS_TYPE":0,"CLASSIFICATION_TYPE":"U","NORAD_CAT_ID":47263,"ELEMENT_SET_NO":999,"REV_AT_EPOCH":23214,"BSTAR":0.00046610697,"MEAN_MOTION_DOT":1.8e-6,"MEAN_MOTION_DDOT":0},{"OBJECT_NAME":"ONEWEB-0118","OBJECT_ID":"2020-100G","EPOCH":"2025-10-13T07:44:35.316672","MEAN_MOTION":13.12444178,"ECCENTRICITY":0.00019469,"INCLINATION":87.8958,"RA_OF_ASC_NODE":39.6861,"ARG_OF_PERICENTER":92.7816,"MEAN_ANOMALY":267.3535,"EPHEMERIS_TYPE":0,"CLASSIFICATION_TYPE":"U","NORAD_CAT_ID":47264,"ELEMENT_SET_NO":999,"REV_AT_EPOCH":23234,"BSTAR":0.00077779902,"MEAN_MOTION_DOT":2.93e-6,"MEAN_MOTION_DDOT":0},{"OBJECT_NAME":"ONEWEB-0119","OBJECT_ID":"2020-100H","EPOCH":"2025-10-13T06:34:31.014048","MEAN_MOTION":13.12443949,"ECCENTRICITY":0.00017327,"INCLINATION":87.8955,"RA_OF_ASC_NODE":39.7327,"ARG_OF_PERICENTER":102.0952,"MEAN_ANOMALY":258.0371,"EPHEMERIS_TYPE":0,"CLASSIFICATION_TYPE":"U","NORAD_CAT_ID":47265,"ELEMENT_SET_NO":999,"REV_AT_EPOCH":23231,"BSTAR":-0.00093366461,"MEAN_MOTION_DOT":-3.23e-6,"MEAN_MOTION_DDOT":0},{"OBJECT_NAME":"ONEWEB-0120","OBJECT_ID":"2020-100J","EPOCH":"2025-10-13T07:07:25.737024","MEAN_MOTION":13.12444425,"ECCENTRICITY":0.00018634,"INCLINATION":87.8957,"RA_OF_ASC_NODE":39.7301,"ARG_OF_PERICENTER":100.8641,"MEAN_ANOMALY":259.2698,"EPHEMERIS_TYPE":0,"CLASSIFICATION_TYPE":"U","NORAD_CAT_ID":47266,"ELEMENT_SET_NO":999,"REV_AT_EPOCH":23234,"BSTAR":0.00068900665,"MEAN_MOTION_DOT":2.61e-6,"MEAN_MOTION_DDOT":0},{"OBJECT_NAME":"ONEWEB-0121","OBJECT_ID":"2020-100K","EPOCH":"2025-10-13T06:50:52.796256","MEAN_MOTION":13.12445725,"ECCENTRICITY":0.00015947,"INCLINATION":87.8956,"RA_OF_ASC_NODE":39.6983,"ARG_OF_PERICENTER":105.095,"MEAN_ANOMALY":255.0355,"EPHEMERIS_TYPE":0,"CLASSIFICATION_TYPE":"U","NORAD_CAT_ID":47267,"ELEMENT_SET_NO":999,"REV_AT_EPOCH":23225,"BSTAR":-4.2040079e-5,"MEAN_MOTION_DOT":-2.0e-8,"MEAN_MOTION_DDOT":0},{"OBJECT_NAME":"ONEWEB-0122","OBJECT_ID":"2020-100L","EPOCH":"2025-10-13T06:43:39.641088","MEAN_MOTION":13.1244372,"ECCENTRICITY":0.00018001,"INCLINATION":87.8955,"RA_OF_ASC_NODE":39.7021,"ARG_OF_PERICENTER":105.0451,"MEAN_ANOMALY":255.0877,"EPHEMERIS_TYPE":0,"CLASSIFICATION_TYPE":"U","NORAD_CAT_ID":47268,"ELEMENT_SET_NO":999,"REV_AT_EPOCH":23216,"BSTAR":-0.00057535869,"MEAN_MOTION_DOT":-1.94e-6,"MEAN_MOTION_DDOT":0},{"OBJECT_NAME":"ONEWEB-0123","OBJECT_ID":"2020-100M","EPOCH":"2025-10-13T06:36:51.700032","MEAN_MOTION":13.12443164,"ECCENTRICITY":0.00017239,"INCLINATION":87.8956,"RA_OF_ASC_NODE":39.7308,"ARG_OF_PERICENTER":97.4241,"MEAN_ANOMALY":262.7084,"EPHEMERIS_TYPE":0,"CLASSIFICATION_TYPE":"U","NORAD_CAT_ID":47269,"ELEMENT_SET_NO":999,"REV_AT_EPOCH":23230,"BSTAR":-0.00085106063,"MEAN_MOTION_DOT":-2.93e-6,"MEAN_MOTION_DDOT":0}]
