ONEWEB-0034             
1 45454U 20020AG  25286.30545990  .00000371  00000+0  10105-2 0  9993
2 45454  87.8827  70.2210 0001570  94.9262 265.2045 13.11417780270232
ONEWEB-0060             
1 45455U 20020AH  25285.66624947 -.00000523  00000+0 -15105-2 0  9998
2 45455  87.8810  70.3722 0000658 141.3595 218.7580 13.11417660270106
ONEWEB-0086             
1 45456U 20020AJ  25286.33173795  .00000198  00000+0  52406-3 0  9996
2 45456  87.8820  70.2125 0001527 124.1520 235.9753 13.11414686270251
ONEWEB-0088             
1 45457U 20020AK  25286.15711691  .00000369  00000+0  10047-2 0  9994
2 45457  87.8827  70.1963 0001681  91.5324 268.5997 13.11414963270168
ONEWEB-0102             
1 47258U 20100A   25286.27883606 -.00000197  00000+0 -58411-3 0  9992
2 47258  87.8958  39.7341 0001889 101.6662 258.4679 13.12443453232343
ONEWEB-0109             
1 47259U 20100B   25286.05824136  .00000021  00000+0  24369-4 0  9992
2 47259  87.8956  39.7459 0001806 103.2227 256.9104 13.12444415232149
ONEWEB-0110             
1 47260U 20100C   25286.31290408  .00000459  00000+0  12394-2 0  9990
2 47260  87.8953  39.6792 0001579 109.2594 250.8705 13.12443684232346
ONEWEB-0111             
1 47261U 20100D   25286.34372381 -.00000374  00000+0 -10758-2 0  9995
2 47261  87.8957  39.6903 0001715 100.7497 259.3825 13.12442785232185
ONEWEB-0114             
1 47262U 20100E   25286.29830822  .00000381  00000+0  10247-2 0  9998
2 47262  87.8956  39.6936 0002025  99.1509 260.9849 13.12444715232135
ONEWEB-0117             
1 47263U 20100F   25286.29019539  .00000180  00000+0  46611-3 0  9995
2 47263  87.8957  39.6933 0001724 101.2085 258.9238 13.12444964232149
ONEWEB-0118             
1 47264U 20100G   25286.32263098  .00000293  00000+0  77780-3 0  9997
2 47264  87.8958  39.6861 0001946  92.7816 267.3535 13.12444178232346
ONEWEB-0119             
1 47265U 20100H   25286.27397007 -.00000323  00000+0 -93366-3 0  9994
2 47265  87.8955  39.7327 0001732 102.0952 258.0371 13.12443949232318
ONEWEB-0120             
1 47266U 20100J   25286.29682566  .00000261  00000+0  68901-3 0  9990
2 47266  87.8957  39.7301 0001863 100.8641 259.2698 13.12444425232347
ONEWEB-0121             
1 47267U 20100K   25286.28533329 -.00000002  00000+0 -42040-4 0  9994
2 47267  87.8956  39.6983 0001594 105.0950 255.0355 13.12445725232251
ONEWEB-0122             
1 47268U 20100L   25286.28031992 -.00000194  00000+0 -57536-3 0  9991
2 47268  87.8955  39.7021 0001800 105.0451 255.0877 13.12443720232163
ONEWEB-0123             
1 47269U 20100M   25286.27559838 -.00000293  00000+0 -85106-3 0  9999
2 47269  87.8956  39.7308 0001723  97.4241 262.7084 13.12443164232301
